91P/Russell,e,14.4607,244.9522,356.9265,3.882062,0.1288577,0.34493533,137.9443,10/25.0/2023,2000,g  7.5,6.0
# From MPEC 2014-J58
92P/Sanguin,e,19.4997,181.3791,163.8029,5.342684,0.0798114,0.66072014,251.5728,10/25.0/2023,2000,g 12.0,6.0
# From NK 2707
93P/Lovas,e,12.2040,339.5994,74.9099,4.378116,0.1075903,0.61392494,260.9320,10/25.0/2023,2000,g  9.0,4.0
# From MPEC 2023_O39
94P/Russell,e,6.1878,70.8523,92.4101,3.510368,0.1498563,0.36559314,23.5200,10/25.0/2023,2000,g  9.0,6.0
# From MPC 75717
95P/Chiron,e,6.9220,209.2001,339.4496,13.71263,0.0194099,0.37644473,197.7959,10/25.0/2023,2000,g  6.5,2.0
# From MPEC 2023-N01
96P/Machholz,e,57.5241,93.9531,14.7451,3.030670,0.1868083,0.96160193,49.8613,10/25.0/2023,2000,g 13.0,4.8
# From MPC106348
96P-B/Machholz,e,57.5062,14.7397,93.9469,3.030231,0.1868489,0.96159885,49.8719,10/25.0/2023,2000,g 13.0,4.8
# From MPC103849
96P-C/Machholz,e,58.5311,94.3495,15.5380,3.011920,0.1885553,0.95889850,359.8715,07/14.0/2012,2000,g  9.0,4.0
# From MPEC 2022-C56
97P/Metcalf-Brewington,e,17.9504,184.1176,230.0236,4.764817,0.0947621,0.46031151,58.3848,10/25.0/2023,2000,g  5.5,6.0
# From MPEC 2021-W31
98P/Takamizawa,e,10.5660,114.6544,157.7550,3.791259,0.1335146,0.56236683,136.6898,10/25.0/2023,2000,g  9.0,8.0
# From MPEC 2023-RF3
99P/Kowal,e,4.3396,28.0989,174.7294,6.098453,0.0654447,0.22854673,36.8000,10/25.0/2023,2000,g  4.5,6.0
# From MPEC 2023-OA6
100P/Hartley,e,25.5669,37.6871,181.9617,3.430623,0.1551117,0.41179745,68.2700,10/25.0/2023,2000,g  9.0,8.0
# From MPEC 2022-K19
101P/Chernykh,e,5.0498,116.2508,277.7682,5.811814,0.0703455,0.59637136,97.1160,10/25.0/2023,2000,g 10.0,4.8
# From MPC105241
101P-B/Chernykh,e,5.0500,278.5714,115.4499,5.827282,0.0700656,0.59658261,95.4836,10/25.0/2023,2000,g  9.0,4.0
# From MPEC 2022-C56
102P/Shoemaker,e,25.8771,339.4118,20.6475,3.817774,0.1321261,0.45683384,132.8409,10/25.0/2023,2000,g  6.5,8.0
# From MPEC 2023-UF9
103P/Hartley,e,13.6107,219.7497,181.3016,3.475471,0.1521191,0.69382814,1.8996,10/25.0/2023,2000,g  8.5,8.0
# From MPEC 2023-G31
104P/Kowal,e,5.7034,207.2095,227.2497,3.208560,0.1714900,0.66580756,111.6725,10/25.0/2023,2000,g 16.0,4.0
# From MPC109147
105P/Singer Brewster,e,9.1679,192.3644,46.4175,3.470676,0.1524344,0.40884294,290.5032,10/25.0/2023,2000,g 11.5,6.0
# From MPEC 2022-GA9
106P/Schuster,e,19.5370,48.8874,353.7267,3.766447,0.1348361,0.59398489,107.4624,10/25.0/2023,2000,g 14.0,4.8
# From MPEC 2015-M77
107P/Wilson-Harrington,e,2.7987,266.7620,95.4744,2.624943,0.2317524,0.63154637,98.8107,10/25.0/2023,2000,g  9.0,4.0
# From MPEC 2022-P82
108P/Ciffreo,e,11.4363,50.2973,354.4824,3.741916,0.1361642,0.55613007,105.4802,10/25.0/2023,2000,g  8.0,12.0
# From  105, 420
109P/Swift-Tuttle,e,13.7444,139.3286,153.0223,26.20236,0.0073484,0.96212420,82.8710,10/25.0/2023,2000,g  4.0,6.0
# From MPEC 2023-KD6
110P/Hartley,e,11.7060,287.5004,167.4808,3.603866,0.1440625,0.31889916,106.0942,10/25.0/2023,2000,g  1.0,12.0
# From MPC 75718
111P/Helin-Roman-Crockett,e,4.2257,89.8172,1.1205,4.151649,0.1165127,0.10704953,100.1776,10/25.0/2023,2000,g  5.0,8.0
# From MPEC 2021-S45
112P/Urata-Niijima,e,24.2118,31.8373,21.4840,3.523908,0.1489935,0.59078606,201.6917,10/25.0/2023,2000,g 14.0,6.0
# From MPEC 2023-HD1
113P/Spitaler,e,5.2883,306.6682,115.5932,3.693432,0.1388542,0.41995556,70.8661,10/25.0/2023,2000,g 14.9,4.0
# From MPEC 2023-A50
114P/Wiseman-Skiff,e,18.2972,271.0230,172.7544,3.542115,0.1478462,0.55577599,203.8769,10/25.0/2023,2000,g 11.5,6.0
# From MPEC 2023-J29
115P/Maury,e,11.6771,176.0107,120.9902,4.272264,0.1116136,0.51766811,132.0828,10/25.0/2023,2000,g 10.5,6.0
# From MPEC 2023-T65
116P/Wild,e,3.6034,20.9754,173.2262,3.488194,0.1512875,0.37030748,70.3923,10/25.0/2023,2000,g  2.5,10.0
# From MPEC 2023-UF9
117P/Helin-Roman-Alu,e,8.7047,58.8199,223.2671,4.088915,0.1192043,0.25600123,56.3582,10/25.0/2023,2000,g  2.5,8.0
# From MPEC 2023-N01
118P/Shoemaker-Levy,e,10.0907,142.0926,314.8626,3.347717,0.1609092,0.45364751,53.8398,10/25.0/2023,2000,g 12.0,4.0
# From MPEC 2023-M14
119P/Parker-Hartley,e,7.3925,104.5645,322.1337,3.806455,0.1327159,0.38837997,58.2352,10/25.0/2023,2000,g 12.5,4.0
# From MPEC 2022-CN4
120P/Mueller,e,8.4885,358.7246,36.6793,3.967119,0.1247358,0.37483333,112.2920,10/25.0/2023,2000,g 12.0,4.0
# From MPEC 2023-D41
121P/Shoemaker-Holt,e,20.1637,94.1139,11.6924,4.584818,0.1003970,0.18637381,11.8506,10/25.0/2023,2000,g  6.5,8.0
# From MPC 75718
122P/de Vico,e,85.8426,79.7090,12.9900,17.62619,0.0133188,0.96241084,136.7518,10/25.0/2023,2000,g  7.5,5.2
# From MPEC 2021-F20
123P/West-Hartley,e,15.2789,45.9081,104.0385,3.881125,0.1289044,0.44425829,222.8571,10/25.0/2023,2000,g 12.2,4.0
# From MPEC 2023-T65
124P/Mrkos,e,31.4886,0.0939,185.2140,3.371494,0.1592100,0.48729584,205.1315,10/25.0/2023,2000,g 13.5,2.8
# From MPEC 2022-YB4
125P/Spacewatch,e,9.9852,153.1524,87.1459,3.129009,0.1780712,0.51210068,336.0838,10/25.0/2023,2000,g 13.0,6.0
# From MPEC 2023-UF9
126P/IRAS,e,45.8721,357.8687,356.5903,5.637135,0.0736404,0.69656740,8.2245,10/25.0/2023,2000,g  6.0,8.0
# From MPEC 2023-D41
127P/Holt-Olmstead,e,14.3011,13.6050,6.2875,3.452390,0.1536471,0.35938868,67.6944,10/25.0/2023,2000,g 11.0,6.0
# From MPC 89014
128P/Shoemaker-Holt,e,4.3704,214.3432,210.3161,4.486427,0.1037178,0.32226177,256.7736,10/25.0/2023,2000,g  8.5,4.0
# From MPEC 2023-M14
129P/Shoemaker-Levy,e,3.4425,184.8607,307.4708,4.290575,0.1108998,0.08536665,36.4552,10/25.0/2023,2000,g 11.0,4.0
# From MPEC 2023-M14
130P/McNaught-Hughes,e,6.0636,70.1785,246.1219,3.381935,0.1584733,0.46096323,332.6054,10/25.0/2023,2000,g 10.0,6.0
# From MPC102101
131P/Mueller,e,7.3608,214.1789,179.0910,3.677573,0.1397533,0.34490762,242.0215,10/25.0/2023,2000,g 11.0,4.0
# From MPEC 2022-TD3
132P/Helin-Roman-Alu,e,5.3825,174.0329,216.3949,3.889669,0.1284799,0.56468401,91.3163,10/25.0/2023,2000,g 11.0,6.0
# From MPC 94676
133P/Elst-Pizarro,e,1.3897,160.1037,131.9173,3.164942,0.1750473,0.15617252,325.2831,10/25.0/2023,2000,g 15.4,2.0
# From MPC 89012
134P/Kowal-Vavrova,e,4.3348,202.0114,18.8111,6.266390,0.0628316,0.58499562,217.2196,10/25.0/2023,2000,g 11.5,4.0
# From MPEC 2022-OB6
135P/Shoemaker-Levy,e,6.0636,213.0216,22.3729,3.800125,0.1330477,0.29441680,75.2534,10/25.0/2023,2000,g  7.0,8.0
# From MPEC 2022-K19
136P/Mueller,e,9.4270,137.4992,225.1218,4.187257,0.1150296,0.29335619,309.8377,10/25.0/2023,2000,g 11.0,4.0
# From MPEC 2023-J29
137P/Shoemaker-Levy,e,4.8599,232.9295,141.2028,4.521960,0.1024977,0.57374030,181.8991,10/25.0/2023,2000,g 11.0,4.0
# From MPEC 2016-U66
138P/Shoemaker-Levy,e,10.0945,309.3045,95.5972,3.619378,0.1431374,0.53158768,233.8829,10/25.0/2023,2000,g 15.0,6.0
# From MPEC 2020-HN5
139P/Vaisala-Oterma,e,2.3370,242.1787,165.8016,4.516875,0.1026708,0.24825521,219.7848,10/25.0/2023,2000,g  9.5,4.0
# From MPEC 2015-E14
140P/Bowell-Skiff,e,3.8190,343.2820,172.4955,6.406667,0.0607793,0.69571782,182.8965,10/25.0/2023,2000,g 11.5,6.0
# From MPEC 2022-K19
141P/Machholz,e,13.9537,241.8124,153.5941,3.057566,0.1843488,0.73611631,192.1163,10/25.0/2023,2000,g 12.0,12.0
# From MPEC 2015-KD9
141P-A/Machholz,e,13.9452,153.5696,241.8510,3.057704,0.1843364,0.73610935,192.0706,10/25.0/2023,2000,g 12.0,12.0
# From MPC 24216
141P-B/Machholz,e,13.9891,153.6452,241.7403,3.056098,0.1844816,0.73586683,193.4093,10/25.0/2023,2000,g  9.0,4.0
# From MPC 37026
141P-D/Machholz,e,13.8373,153.2966,242.0985,3.066141,0.1835760,0.73706588,188.1335,10/25.0/2023,2000,g  9.0,4.0
# From MPEC 2015-R12
141P-E/Machholz,e,12.8152,246.1856,149.2667,3.012914,0.1884620,0.75023267,359.9529,09/19.0/1994,2000,g  9.0,4.0
# From MPEC 2015-R12
141P-F/Machholz,e,12.7898,246.1881,149.2374,3.010224,0.1887147,0.75000946,359.9630,09/19.0/1994,2000,g  9.0,4.0
# From MPEC 2015-R12
141P-G/Machholz,e,12.8259,246.3146,149.0784,3.005818,0.1891298,0.74964304,359.9802,09/19.0/1994,2000,g  9.0,4.0
# From MPC 95735
141P-H/Machholz,e,12.8431,246.0900,149.4500,3.008012,0.1889230,0.74682218,359.9270,08/24.0/2015,2000,g 18.5,4.0
# From MPEC 2022-SU8
141P-I/Machholz,e,13.9451,153.5238,241.8613,3.048189,0.1852001,0.73533441,193.0837,10/25.0/2023,2000,g 17.5,4.0
# From MPEC 2021-Y10
142P/Ge-Wang,e,12.2507,175.9706,174.0279,5.001842,0.0881067,0.49683195,78.8890,10/25.0/2023,2000,g  8.5,6.0
# From MPEC 2023-UF9
143P/Kowal-Mrkos,e,4.8127,244.4282,320.6000,4.259813,0.1121033,0.41927344,224.0914,10/25.0/2023,2000,g 13.5,2.0
# From MPEC 2023-UF9
144P/Kushida,e,3.9317,242.9254,216.3202,3.832459,0.1313675,0.63500157,347.8134,10/25.0/2023,2000,g  8.5,8.0
# From MPC108598
145P/Shoemaker-Levy,e,11.2786,26.8192,10.2874,4.134109,0.1172549,0.54259612,262.7142,10/25.0/2023,2000,g 13.5,4.0
# From MPC100284
146P/Shoemaker-LINEAR,e,23.1172,53.4201,317.0124,4.027251,0.1219526,0.64748874,325.1863,10/25.0/2023,2000,g 15.0,4.0
# From MPC 75720
147P/Kushida-Muramatsu,e,2.2911,92.1169,348.0994,4.014188,0.1225484,0.21314244,354.7242,10/25.0/2023,2000,g 14.0,4.0
# From MPEC 2023-HD1
148P/Anderson-LINEAR,e,3.6583,89.1997,8.0453,3.619449,0.1431332,0.55013254,71.3128,10/25.0/2023,2000,g 16.2,4.0
# From MPEC 2023-J29
149P/Mueller,e,34.2493,143.8757,30.4429,4.123340,0.1177146,0.32435124,224.6100,10/25.0/2023,2000,g  8.0,8.0
# From MPEC 2023-UF9
150P/LONEOS,e,18.5471,272.0593,246.1027,3.869877,0.1294668,0.54891064,341.9464,10/25.0/2023,2000,g 13.5,4.0
# From MPEC 2022-K19
151P/Helin,e,4.7288,143.1788,216.1123,5.763494,0.0712320,0.57354584,208.8751,10/25.0/2023,2000,g 10.0,6.0
# From MPEC 2023-UF9
152P/Helin-Lawrence,e,9.8777,91.8208,164.2393,4.481186,0.1038998,0.30845129,67.3616,10/25.0/2023,2000,g 11.5,4.0
# From MPC 46101
153P/Ikeya-Zhang,e,28.3150,93.6272,34.4826,50.33420,0.0027600,0.98989664,0.0000,03/04.0917/2002,2000,g  9.0,4.0
# From MPEC 2022-K19
154P/Brewington,e,17.6336,343.0178,47.9543,4.795855,0.0938437,0.67617520,338.3741,10/25.0/2023,2000,g  2.5,12.0
# From MPEC 2022-YN2
155P/Shoemaker,e,6.4056,97.1622,14.5234,6.571166,0.0585114,0.72707032,84.2182,10/25.0/2023,2000,g 10.0,4.8
# From MPEC 2023-J29
